GALAXY 25 (G-25)        
1 24812U 97026A   23297.56771247  .00000046  00000+0  00000+0 0  9991
2 24812   4.9332  78.5929 0006295  76.2382 159.8251  0.99030753 96642
INTELSAT 5 (IS-5)       
1 24916U 97046A   23297.17352038 -.00000063  00000+0  00000+0 0  9998
2 24916   8.2866  57.3819 0006795 173.8850  29.6907  1.00270976 95926
GALAXY 11 (G-11)        
1 26038U 99071A   23297.46565532  .00000093  00000+0  00000+0 0  9994
2 26038   4.2588  82.0485 0007409 143.7603 168.0154  1.00055246 87383
INTELSAT 9 (IS-9)       
1 26451U 00043A   23297.27377045 -.00000288  00000+0  00000+0 0  9990
2 26451   8.2713  57.5757 0003935 172.9084 210.5172  1.00270123 34458
INTELSAT 1R (IS-1R)     
1 26608U 00072A   23297.53660338 -.00000140  00000+0  00000+0 0  9992
2 26608   5.6594  75.2968 0003573 206.2063 101.4463  1.00271631 31629
INTELSAT 10 (IS-10)     
1 26766U 01019A   23297.17587000  .00000033  00000+0  00000+0 0  9993
2 26766   6.7526  68.9114 0003840 155.4114  49.1285  1.00270236 35929
INTELSAT 901 (IS-901)   
1 26824U 01024A   23297.47827333 -.00000207  00000+0  00000+0 0  9997
2 26824   0.0508  77.4721 0001310 169.9911 289.8951  1.00270414 13292
INTELSAT 902 (IS-902)   
1 26900U 01039A   23297.41709671 -.00000284  00000+0  00000+0 0  9991
2 26900   3.6530  83.3749 0004497 172.4680 236.7940  1.00273590 81009
INTELSAT 904 (IS-904)   
1 27380U 02007A   23297.34956715 -.00000215  00000+0  00000+0 0  9999
2 27380   4.4764  80.5065 0002922 133.5690 274.7881  1.00272158 42079
DIRECTV 5 (TEMPO 1)     
1 27426U 02023A   23297.50327091 -.00000059  00000+0  00000+0 0  9991
2 27426   2.3859  87.2494 0003445 134.7511 241.7308  1.00270972 78617
INTELSAT 905 (IS-905)   
1 27438U 02027A   23297.27890478 -.00000186  00000+0  00000+0 0  9997
2 27438   4.3002  81.1868 0002620 120.7819 266.3900  1.00271437 41674
GALAXY 3C (G-3C)        
1 27445U 02030A   23297.47984002 -.00000157  00000+0  00000+0 0  9996
2 27445   1.2360  89.3144 0002523 155.1717 226.0621  1.00270927 78253
INTELSAT 906 (IS-906)   
1 27513U 02041A   23297.51151627  .00000011  00000+0  00000+0 0  9996
2 27513   3.3260  84.6776 0004555 152.2227  44.0537  1.00271884 77336
GALAXY 12 (G-12)        
1 27715U 03013B   23297.50725216  .00000043  00000+0  00000+0 0  9995
2 27715   4.5097  80.1972 0000306  18.3135 159.7319  0.98982877 42397
GALAXY 23 (G-23)        
1 27854U 03034A   23297.47470568  .00000008  00000+0  00000+0 0  9996
2 27854   0.6895  92.1967 0002734 123.8213 226.6303  1.00272162 74044
GALAXY 13 (HORIZONS-1)  
1 27954U 03044A   23297.47226905  .00000093  00000+0  00000+0 0  9996
2 27954   0.0265 129.2612 0000488 158.5413 141.9356  1.00041968 36874
INTELSAT 10-02          
1 28358U 04022A   23297.21198439 -.00000016  00000+0  00000+0 0  9990
2 28358   0.0136 219.0769 0000950   2.2503 246.3599  1.00269418 70857
XM-3 (RHYTHM)           
1 28626U 05008A   23297.48175453 -.00000211  00000+0  00000+0 0  9990
2 28626   0.0178 185.2011 0000160  22.3266 273.4573  1.00269907 32930
DIRECTV 8               
1 28659U 05019A   23297.51128375 -.00000004  00000+0  00000+0 0  9993
2 28659   0.0135 263.5407 0002870 309.3563 244.7949  1.00271411 67373
GALAXY 28 (G-28)        
1 28702U 05022A   23297.48097132 -.00000190  00000+0  00000+0 0  9994
2 28702   0.7939  90.4191 0005833 156.3711 229.9963  1.00273350 42294
GALAXY 14 (G-14)        
1 28790U 05030A   23297.50525064  .00000152  00000+0  00000+0 0  9990
2 28790   2.5172  86.5974 0001706 142.9745  17.8979  1.00273565 66619
GALAXY 15 (G-15)        
1 28884U 05041A   23297.64693120 -.00000122  00000+0  00000+0 0  9998
2 28884   1.0110  85.1039 0015977 110.7256 177.3599  0.98939509 65871
SPACEWAY 2              
1 28903U 05046B   23297.47113775  .00000101  00000+0  00000+0 0  9995
2 28903   3.0449  82.9915 0000481 116.7741 223.5869  1.00270181 41648
GALAXY 16 (G-16)        
1 29236U 06023A   23297.47905682 -.00000132  00000+0  00000+0 0  9992
2 29236   0.0251 250.9419 0002946 329.8113 245.3377  1.00268786 63570
DIRECTV 9S              
1 29494U 06043A   23297.49771380 -.00000119  00000+0  00000+0 0  9993
2 29494   0.0889 279.1546 0003033 293.0291 258.4582  1.00271708 41694
XM-4 (BLUES)            
1 29520U 06049A   23296.81093047 -.00000225  00000+0  00000+0 0  9999
2 29520   0.2877  95.8406 0023198 287.1405 246.6066  0.99306959 62295
GALAXY 17 (G-17)        
1 31307U 07016B   23297.33488821 -.00000210  00000+0  00000+0 0  9990
2 31307   0.5068  92.1398 0002652 130.1596 205.7658  1.00270265 60100
DIRECTV 10              
1 31862U 07032A   23297.49771380 -.00000109  00000+0  00000+0 0  9993
2 31862   0.0113 186.5289 0000384  35.5500 246.9627  1.00273728 59717
SPACEWAY 3              
1 32018U 07036A   23297.48741101 -.00000289  00000+0  00000+0 0  9997
2 32018   1.4937  88.0215 0000544 279.0954 144.2216  1.00278223 36861
INTELSAT 11 (IS-11)     
1 32253U 07044B   23297.41848907 -.00000273  00000+0  00000+0 0  9995
2 32253   1.0471  90.5529 0003911 138.4338 271.2460  1.00269632 58806
HORIZONS-2              
1 32388U 07063B   23297.48401712 -.00000259  00000+0  00000+0 0  9995
2 32388   0.0950  86.7308 0002358 142.7981 263.5560  1.00272821 58184
DIRECTV 11              
1 32729U 08013A   23297.47896980 -.00000130  00000+0  00000+0 0  9992
2 32729   0.0200  72.7630 0000753  86.5114 306.5822  1.00268189 35900
GALAXY 18 (G-18)        
1 32951U 08024A   23297.47427058  .00000020  00000+0  00000+0 0  9994
2 32951   0.0193 231.6689 0003138 344.4782 224.1993  1.00271329 36157
INTELSAT 25 (IS-25)     
1 33153U 08034A   23297.47827333 -.00000229  00000+0  00000+0 0  9992
2 33153   0.2030  89.8744 0003002 122.7237 320.7312  1.00271318 56003
GALAXY 19 (G-19)        
1 33376U 08045A   23297.47940491 -.00000144  00000+0  00000+0 0  9998
2 33376   0.0190 268.8100 0002896 291.1956 268.2163  1.00268589 55217
FM-5                    
1 35493U 09034A   23297.48158047 -.00000205  00000+0  00000+0 0  9996
2 35493   0.0140 262.4896 0000817 277.0645 300.3247  1.00270749 36957
INTELSAT 14 (IS-14)     
1 36097U 09064A   23297.48383042 -.00000279  00000+0  00000+0 0  9996
2 36097   0.0220 276.8197 0002681 307.7486 297.2694  1.00267506 50914
INTELSAT 15 (IS-15)     
1 36106U 09067A   23297.63398823 -.00000191  00000+0  00000+0 0  9993
2 36106   0.0052 119.3365 0002587 106.9630 119.8853  1.00270454 31530
DIRECTV 12              
1 36131U 09075A   23297.49771380 -.00000109  00000+0  00000+0 0  9996
2 36131   0.0348  75.8523 0000483  66.0709 327.1896  1.00271492 36870
INTELSAT 16 (IS-16)     
1 36397U 10006A   23297.48358200 -.00000250  00000+0  00000+0 0  9994
2 36397   0.0173 326.2403 0002428 255.4159 268.8743  1.00269814 49965
XM-5                    
1 37185U 10053A   23297.47583698 -.00000028  00000+0  00000+0 0  9995
2 37185   0.0164 264.2121 0000510 242.0522 302.4982  1.00268966 47780
INTELSAT 17 (IS-17)     
1 37238U 10065B   23297.51186437 -.00000008  00000+0  00000+0 0  9990
2 37238   0.0252 265.1277 0002345 305.5744  72.2488  1.00274429 43542
INTELSAT NEW DAWN       
1 37392U 11016A   23297.21868514  .00000150  00000+0  00000+0 0  9995
2 37392   0.0121 198.4870 0001570  24.9251 280.4968  1.00270544 43594
INTELSAT 18 (IS-18)     
1 37834U 11056A   23297.54771742  .00000048  00000+0  00000+0 0  9998
2 37834   0.0201 254.0482 0002066 323.9090 191.9366  1.00273226 44113
INTELSAT 22 (IS-22)     
1 38098U 12011A   23297.51308267 -.00000065  00000+0  00000+0 0  9998
2 38098   0.0222 122.1460 0002984  93.6585  73.6909  1.00272813 42128
INTELSAT 19 (IS-19)     
1 38356U 12030A   23297.54632652 -.00000062  00000+0  00000+0 0  9994
2 38356   0.0163 277.7531 0003333 301.9493 175.6856  1.00272136 40745
INTELSAT 20 (IS-20)     
1 38740U 12043A   23297.09059625 -.00000030  00000+0  00000+0 0  9993
2 38740   0.0237 144.2959 0002208  52.7422 296.3361  1.00271360 41054
INTELSAT 21 (IS-21)     
1 38749U 12045A   23297.48714993 -.00000290  00000+0  00000+0 0  9991
2 38749   0.0140 284.7184 0002679 294.8037 290.5037  1.00269105 40834
INTELSAT 23 (IS-23)     
1 38867U 12057A   23297.41459618 -.00000290  00000+0  00000+0 0  9998
2 38867   0.0149 234.9965 0001862   5.5126 248.3533  1.00280510 40258
FM-6                    
1 39360U 13058A   23297.50327091 -.00000022  00000+0  00000+0 0  9991
2 39360   0.0191 268.7485 0000350 204.3140 344.6126  1.00270003 36374
INTELSAT 30 (IS-30)     
1 40271U 14062A   23297.47984002 -.00000156  00000+0  00000+0 0  9995
2 40271   0.0207 248.7086 0002403 202.5237  19.0966  1.00269583 32909
DIRECTV 14              
1 40333U 14078B   23297.47896980 -.00000131  00000+0  00000+0 0  9991
2 40333   0.0180 273.3583 0000370 218.5598 333.9198  1.00271641 32376
DIRECTV 15              
1 40663U 15026A   23297.47827362 -.00000108  00000+0  00000+0 0  9993
2 40663   0.0154 184.8190 0000586 222.0179  55.1299  1.00267704 30847
SKY MEXICO-1            
1 40664U 15026B   23297.48305986 -.00000240  00000+0  00000+0 0  9995
2 40664   0.0413  70.6199 0002371 151.7285 265.4345  1.00272272 30762
INTELSAT 34 (IS-34)     
1 40874U 15039A   23297.48767208 -.00000291  00000+0  00000+0 0  9997
2 40874   0.0357 293.9009 0001121  73.1833 145.6532  1.00271506 29933
INTELSAT 31 (IS-31)     
1 41581U 16035A   23296.83498441 -.00000155  00000+0  00000+0 0  9997
2 41581   0.0092 228.2621 0001668 354.7130  14.5786  1.00272048 26990
INTELSAT 36 (IS-36)     
1 41747U 16053A   23297.51238649 -.00000030  00000+0  00000+0 0  9991
2 41747   0.0145 302.1165 0002506  75.7536 267.7680  1.00270233 26258
INTELSAT 33E (IS-33E)   
1 41748U 16053B   23297.51064604  .00000043  00000+0  00000+0 0  9993
2 41748   0.0167 271.1629 0002212 301.8289  63.5149  1.00270907 26558
INTELSAT 32E (IS-32E)   
1 41945U 17007B   23297.49010872 -.00000274  00000+0  00000+0 0  9994
2 41945   0.0155 214.9720 0000291 268.3554  42.5596  1.00266398 24547
INTELSAT 35E (IS-35E)   
1 42818U 17041A   23297.47827333 -.00000243  00000+0  00000+0 0  9994
2 42818   0.0184 226.4869 0002058 350.9922 312.8286  1.00276870 23129
